CENTISPACE-1 OBJECT K   
1 68359U 26060K   26087.86940483  .00000031  00000+0  35282-4 0  9997
2 68359  54.9801   3.3573 0014665 314.9648  45.0162 14.75497382   927
